******** Week 149 almanac for PRN-18 ********
ID:                         18
Health:                     000
Eccentricity:               0.2095222473E-002
Time of Applicability(s):  147456.0000
Orbital Inclination(rad):   0.9704549691
Rate of Right Ascen(r/s):  -0.8171768958E-008
SQRT(A)  (m 1/2):           5153.568848
Right Ascen at Week(rad):  -0.1902681834E+001
Argument of Perigee(rad):   3.107825602
Mean Anom(rad):            -0.2509111702E+001
Af0(s):                     0.2403259277E-003
Af1(s/s):                  -0.7275957614E-011
week:                        149

******** Week 149 almanac for PRN-19 ********
ID:                         19
Health:                     000
Eccentricity:               0.8972644806E-002
Time of Applicability(s):  147456.0000
Orbital Inclination(rad):   0.9789278161
Rate of Right Ascen(r/s):  -0.7588887536E-008
SQRT(A)  (m 1/2):           5153.645508
Right Ascen at Week(rad):  -0.2863437670E+001
Argument of Perigee(rad):   2.007996955
Mean Anom(rad):             0.1876248753E+001
Af0(s):                     0.1192092896E-003
Af1(s/s):                   0.3637978807E-011
week:                        149

******** Week 149 almanac for PRN-20 ********
ID:                         20
Health:                     000
Eccentricity:               0.5158901215E-002
Time of Applicability(s):  147456.0000
Orbital Inclination(rad):   0.9416628688
Rate of Right Ascen(r/s):  -0.8240343243E-008
SQRT(A)  (m 1/2):           5153.694824
Right Ascen at Week(rad):  -0.1029392488E+001
Argument of Perigee(rad):   3.132101522
Mean Anom(rad):            -0.1691732885E+001
Af0(s):                     0.5168914795E-003
Af1(s/s):                   0.0000000000E+000
week:                        149

******** Week 149 almanac for PRN-21 ********
ID:                         21
Health:                     000
Eccentricity:               0.2460289001E-001
Time of Applicability(s):  147456.0000
Orbital Inclination(rad):   0.9592736873
Rate of Right Ascen(r/s):  -0.8160339911E-008
SQRT(A)  (m 1/2):           5153.529785
Right Ascen at Week(rad):  -0.2001421361E+001
Argument of Perigee(rad):  -1.005531148
Mean Anom(rad):            -0.3488929946E+000
Af0(s):                     0.1583099365E-003
Af1(s/s):                   0.0000000000E+000
week:                        149

******** Week 149 almanac for PRN-22 ********
ID:                         22
Health:                     000
Eccentricity:               0.1289081573E-001
Time of Applicability(s):  147456.0000
Orbital Inclination(rad):   0.9616825165
Rate of Right Ascen(r/s):  -0.7623174679E-008
SQRT(A)  (m 1/2):           5153.611328
Right Ascen at Week(rad):   0.2542940173E+000
Argument of Perigee(rad):  -1.872719773
Mean Anom(rad):            -0.6591623304E+000
Af0(s):                     0.2136230469E-003
Af1(s/s):                   0.7275957614E-011
week:                        149

******** Week 149 almanac for PRN-23 ********
ID:                         23
Health:                     000
Eccentricity:               0.1972198486E-002
Time of Applicability(s):  147456.0000
Orbital Inclination(rad):   0.9674169681
Rate of Right Ascen(r/s):  -0.7943188009E-008
SQRT(A)  (m 1/2):           5153.656738
Right Ascen at Week(rad):  -0.9026080025E+000
Argument of Perigee(rad):   2.961407211
Mean Anom(rad):             0.2861494728E+001
Af0(s):                     0.9536743164E-006
Af1(s/s):                  -0.3637978807E-011
week:                        149

******** Week 149 almanac for PRN-24 ********
ID:                         24
Health:                     000
Eccentricity:               0.1233720779E-001
Time of Applicability(s):  147456.0000
Orbital Inclination(rad):   0.9341847124
Rate of Right Ascen(r/s):  -0.8240343243E-008
SQRT(A)  (m 1/2):           5153.626953
Right Ascen at Week(rad):   0.1142070043E+001
Argument of Perigee(rad):   0.807282856
Mean Anom(rad):            -0.2411952220E+001
Af0(s):                     0.2746582031E-003
Af1(s/s):                  -0.3637978807E-011
week:                        149

******** Week 149 almanac for PRN-25 ********
ID:                         25
Health:                     000
Eccentricity:               0.1050281525E-001
Time of Applicability(s):  147456.0000
Orbital Inclination(rad):   0.9576198642
Rate of Right Ascen(r/s):  -0.7851755629E-008
SQRT(A)  (m 1/2):           5153.656250
Right Ascen at Week(rad):   0.2261181683E+001
Argument of Perigee(rad):   0.981149242
Mean Anom(rad):             0.1997963537E+001
Af0(s):                     0.2851486206E-003
Af1(s/s):                   0.3637978807E-011
week:                        149

******** Week 149 almanac for PRN-26 ********
ID:                         26
Health:                     000
Eccentricity:               0.6876468658E-002
Time of Applicability(s):  147456.0000
Orbital Inclination(rad):   0.9384271281
Rate of Right Ascen(r/s):  -0.8023191341E-008
SQRT(A)  (m 1/2):           5153.639648
Right Ascen at Week(rad):   0.2214197903E+001
Argument of Perigee(rad):   0.369742175
Mean Anom(rad):             0.1345171946E+001
Af0(s):                     0.1831054688E-003
Af1(s/s):                   0.3637978807E-011
week:                        149

******** Week 149 almanac for PRN-27 ********
ID:                         27
Health:                     000
Eccentricity:               0.1022481918E-001
Time of Applicability(s):  147456.0000
Orbital Inclination(rad):   0.9737805915
Rate of Right Ascen(r/s):  -0.7600316584E-008
SQRT(A)  (m 1/2):           5153.610840
Right Ascen at Week(rad):  -0.2970725694E+001
Argument of Perigee(rad):   0.638234503
Mean Anom(rad):            -0.4872740906E+000
Af0(s):                     0.1192092896E-003
Af1(s/s):                   0.1455191523E-010
week:                        149

******** Week 149 almanac for PRN-29 ********
ID:                         29
Health:                     000
Eccentricity:               0.1833438873E-002
Time of Applicability(s):  147456.0000
Orbital Inclination(rad):   0.9821995095
Rate of Right Ascen(r/s):  -0.7531742299E-008
SQRT(A)  (m 1/2):           5153.713867
Right Ascen at Week(rad):  -0.2895294361E+001
Argument of Perigee(rad):   2.257013794
Mean Anom(rad):            -0.3623404185E+000
Af0(s):                    -0.4796981812E-003
Af1(s/s):                  -0.3637978807E-011
week:                        149

******** Week 149 almanac for PRN-30 ********
ID:                         30
Health:                     000
Eccentricity:               0.5508422852E-002
Time of Applicability(s):  147456.0000
Orbital Inclination(rad):   0.9358085749
Rate of Right Ascen(r/s):  -0.8228914196E-008
SQRT(A)  (m 1/2):           5153.509766
Right Ascen at Week(rad):   0.1237987660E+001
Argument of Perigee(rad):  -2.744132090
Mean Anom(rad):             0.2940992083E+001
Af0(s):                    -0.5130767822E-003
Af1(s/s):                  -0.3637978807E-011
week:                        149

******** Week 149 almanac for PRN-31 ********
ID:                         31
Health:                     000
Eccentricity:               0.1045465469E-001
Time of Applicability(s):  147456.0000
Orbital Inclination(rad):   0.9548694846
Rate of Right Ascen(r/s):  -0.8011762293E-008
SQRT(A)  (m 1/2):           5153.623535
Right Ascen at Week(rad):   0.1242936021E+001
Argument of Perigee(rad):   0.375321956
Mean Anom(rad):             0.2452467888E+001
Af0(s):                    -0.1649856567E-003
Af1(s/s):                   0.0000000000E+000
week:                        149

******** Week 149 almanac for PRN-32 ********
ID:                         32
Health:                     000
Eccentricity:               0.5566596985E-002
Time of Applicability(s):  147456.0000
Orbital Inclination(rad):   0.9584108231
Rate of Right Ascen(r/s):  -0.7646032774E-008
SQRT(A)  (m 1/2):           5153.729492
Right Ascen at Week(rad):   0.1642688943E+000
Argument of Perigee(rad):  -2.354620063
Mean Anom(rad):             0.1588119524E+000
Af0(s):                    -0.6771087646E-004
Af1(s/s):                  -0.7275957614E-011
week:                        149

